ORBCOMM FM37            
1 33064U 08031E   25269.22339083  .00003672  00000+0  50636-3 0  9992
2 33064  48.4383 223.1900 0004797  86.8236   7.1887 14.80117619929015
ORBCOMM FM40            
1 33065U 08031F   25269.18977124  .00004654  00000+0  59994-3 0  9999
2 33065  48.4404 205.6639 0005941 103.0988  38.2391 14.82475091929144
VESSELSAT 1             
1 37840U 11058C   25269.13055134  .00000459  00000+0  10540-3 0  9993
2 37840  19.9611 203.0710 0013577 216.4103 143.5378 14.11372784720585
ORBCOMM FM109           
1 40086U 14040A   25269.04076438  .00001355  00000+0  32649-3 0  9993
2 40086  47.0027 259.9308 0000694  57.4902 302.6050 14.58322241595784
ORBCOMM FM107           
1 40087U 14040B   25269.13267633  .00001441  00000+0  34424-3 0  9992
2 40087  47.0043 260.4194 0001386 334.9456  25.1362 14.58405416595878
ORBCOMM FM106           
1 40088U 14040C   25268.92285920  .00002830  00000+0  50076-3 0  9992
2 40088  47.0591  75.4224 0016924 176.9604 183.1392 14.69683495598292
ORBCOMM FM111           
1 40089U 14040D   25269.30211198  .00005958  00000+0  67738-3 0  9999
2 40089  47.0004 270.0132 0030669 316.2556  43.5911 14.86893470605278
ORBCOMM FM104           
1 40090U 14040E   25269.09522057  .00001223  00000+0  30786-3 0  9990
2 40090  47.0053 295.4254 0017229 304.0330  55.8918 14.56793605595336
